IRIDIUM 155             
1 43573U 18061E   26001.29456546  .00000421  00000+0  14321-3 0  9998
2 43573  86.3986 126.4685 0002208  99.5106 260.6340 14.34218282389431
IRIDIUM 154             
1 43574U 18061F   26001.27553764  .00000032  00000+0  43838-5 0  9992
2 43574  86.3991 126.6011 0002001  94.6311 265.5114 14.34217609389488
IRIDIUM 163             
1 43575U 18061G   26001.32627824  .00000044  00000+0  86167-5 0  9993
2 43575  86.3991 126.5007 0001992 100.2456 259.8965 14.34217732389460
IRIDIUM 156             
1 43576U 18061H   26001.30090863 -.00000026  00000+0 -16508-4 0  9992
2 43576  86.3993 126.5186 0002165  98.0643 262.0799 14.34217264389456
IRIDIUM 164             
1 43577U 18061J   26001.28188069 -.00000148  00000+0 -60075-4 0  9999
2 43577  86.3993 126.5639 0001890  90.9016 269.2396 14.34217088389499
IRIDIUM 159             
1 43578U 18061K   25365.83155539  .00000052  00000+0  11577-4 0  9994
2 43578  86.3990 126.6923 0001932  95.3130 264.8287 14.34218065389392
IRIDIUM 180             
1 43922U 19002A   26001.24965850  .00000327  00000+0  10955-3 0  9994
2 43922  86.3950  63.3835 0002008  96.0810 264.0614 14.34216486365067
IRIDIUM 176             
1 43923U 19002B   26001.16232886  .00001683  00000+0  26311-3 0  9991
2 43923  86.6070  63.3876 0002329  99.5751 260.5729 14.72239429374676
IRIDIUM 168             
1 43924U 19002C   26001.24332152  .00000038  00000+0  65713-5 0  9992
2 43924  86.3951  63.4587 0002192  97.4688 262.6757 14.34217607365043
IRIDIUM 173             
1 43925U 19002D   26001.23064177  .00000484  00000+0  16586-3 0  9998
2 43925  86.3951  63.3598 0002257  99.6943 260.4507 14.34217345365021
IRIDIUM 169             
1 43926U 19002E   26001.31839319  .00000639  00000+0  20230-3 0  9999
2 43926  86.4223  94.9785 0002879 111.8345 248.3160 14.38605706366236
IRIDIUM 172             
1 43927U 19002F   26001.22429318  .00000067  00000+0  16709-4 0  9996
2 43927  86.3947  63.3696 0002011  96.5724 263.5700 14.34217805365039
IRIDIUM 175             
1 43928U 19002G   26001.02166447  .00001801  00000+0  28152-3 0  9997
2 43928  86.1497   4.7615 0002928  73.1419 287.0118 14.72265608374644
IRIDIUM 171             
1 43929U 19002H   26001.20526619  .00000184  00000+0  58727-4 0  9994
2 43929  86.3959  63.6658 0002412  92.5785 267.5687 14.34218244365028
IRIDIUM 170             
1 43930U 19002J   26001.23644968  .00001766  00000+0  27632-3 0  9994
2 43930  86.6071  63.3601 0002350  88.6689 271.4797 14.72236140374699
IRIDIUM 167             
1 43931U 19002K   26001.19892400  .00000022  00000+0  79564-6 0  9994
2 43931  86.3946  63.4011 0002558  95.3309 264.8179 14.34217643365020
IRIDIUM 181             
1 56726U 23068S   26001.29992795  .00000739  00000+0  21349-3 0  9996
2 56726  86.4528 126.5575 0001792  80.1730 279.9673 14.43309165138360
IRIDIUM 177             
1 56727U 23068T   26001.14378634  .00000372  00000+0  45494-4 0  9992
2 56727  86.1951  48.1122 0002244  90.0628 270.0850 14.80211139141653
IRIDIUM 174             
1 56728U 23068U   26001.22411482  .00001237  00000+0  19238-3 0  9998
2 56728  86.6076  63.4960 0002143  91.8110 268.3352 14.72241066141458
IRIDIUM 178             
1 56729U 23068V   25365.72723961 -.00005014  00000+0 -66397-3 0  9991
2 56729  86.6546  95.3674 0002445  91.3200 268.8302 14.80246559141593
IRIDIUM 179             
1 56730U 23068W   26001.33033844  .00002827  00000+0  36866-3 0  9997
2 56730  86.6790 103.5984 0002434  93.3748 266.7752 14.80221169141685
